ITUPSAT1                
1 35935U 09051E   23042.89118345  .00002002  00000+0  46231-3 0  9992
2 35935  98.5427 271.6092 0009060  53.0010 307.2015 14.56345445710729
TISAT 1                 
1 36799U 10035E   23042.16085743  .00010447  00000+0  96965-3 0  9991
2 36799  98.1542 266.8647 0012466  35.8287 324.3766 14.94555686683399
M-CUBED & EXP-1 PRIME   
1 37855U 11061F   23043.18002068  .00032484  00000+0  12177-2 0  9994
2 37855 101.7080 295.7200 0137039  61.0783 300.4101 15.18784481618001
AEROCUBE 4.5A           
1 38767U 12048K   23042.43788361  .00014951  00000+0  10165-2 0  9991
2 38767  64.6643  79.0483 0147529 195.5513 164.1047 14.98031373186535
AEROCUBE 4.5B           
1 38768U 12048L   23042.41372958  .00019727  00000+0  11862-2 0  9992
2 38768  64.6665  27.5809 0129655 190.3642 169.4801 15.04068166187025
STRAND-1                
1 39090U 13009E   23042.82101489  .00000796  00000+0  29190-3 0  9993
2 39090  98.3918 239.5852 0007920 279.9491  80.0801 14.35447211521731
BRITE-AUSTRIA           
1 39091U 13009F   23043.29950242  .00000612  00000+0  22813-3 0  9997
2 39091  98.3941 239.2588 0009369 285.5855  74.4297 14.35383822521842
SOMP                    
1 39134U 13015E   23043.13890448  .00076391  00000+0  18408-2 0  9997
2 39134  64.8586 350.0197 0022458 248.8499 111.0238 15.40541786543974
BEESAT-3                
1 39135U 13015F   23042.32888635  .00051639  00000+0  16372-2 0  9999
2 39135  64.8634  36.0110 0028867 250.0835 109.7188 15.31995718542586
BEESAT-2                
1 39136U 13015G   23042.70106727  .00047449  00000+0  15934-2 0  9994
2 39136  64.8723  44.6930 0025983 287.8064  72.0234 15.30257599542412
NEE-01 PEGASO           
1 39151U 13018B   23043.24706912  .00006151  00000+0  78288-3 0  9993
2 39151  97.9985 153.3786 0016185 194.5774 165.4974 14.81846246529184
ESTCUBE 1               
1 39161U 13021C   23043.04452471  .00002785  00000+0  43462-3 0  9999
2 39161  97.8833 118.8470 0009449  16.6916 343.4716 14.73621652524741
POPACS 1                
1 39268U 13055D   23042.55861597  .00033267  00000+0  78977-3 0  9990
2 39268  80.9983 340.6117 0533357 193.5849 165.0517 14.59902553488068
POPACS 2                
1 39269U 13055E   23042.27951680  .00029771  00000+0  78720-3 0  9994
2 39269  81.0090  45.6193 0623787   2.6051 357.8128 14.38678845484446
POPACS 3                
1 39270U 13055F   23042.81665103  .00010293  00000+0  30224-3 0  9994
2 39270  81.0109  82.5471 0675658 106.7336 260.9071 14.25414471462686
ZACUBE-1 (TSHEPISOSAT)  
1 39417U 13066B   23042.65034888  .00009776  00000+0  11576-2 0  9993
2 39417  97.6702   8.9458 0055621 342.0793  17.8459 14.83651489498574
WNISAT-1                
1 39423U 13066H   23042.90766038  .00001376  00000+0  27654-3 0  9990
2 39423  97.7197 271.3220 0174418 108.9686 253.0614 14.53849414489244
TRITON-1                
1 39427U 13066M   23042.76863998  .00004974  00000+0  76474-3 0  9992
2 39427  97.8308 333.4893 0108769 218.7316 140.6057 14.70006859493924
DELFI-N3XT              
1 39428U 13066N   23042.74815825  .00009462  00000+0  14066-2 0  9992
2 39428  97.8298 332.2133 0112360 231.5702 127.5378 14.70932898493685
GOMX-1                  
1 39430U 13066Q   23042.96603807  .00004339  00000+0  76565-3 0  9995
2 39430  97.7949 301.3599 0148110   9.7569 350.6654 14.61004275491257
CUBEBUG-2 (LO-74)       
1 39440U 13066AA  23043.13572476  .00007751  00000+0  10222-2 0  9991
2 39440  97.7588 356.1790 0078984  74.1288 286.8611 14.78150708496870
NEE-02 KRYSAOR          
1 39441U 13066AB  23042.82177573  .00005017  00000+0  68836-3 0  9994
2 39441  97.7696 352.8839 0081195  90.1918 270.8597 14.76544787495343
FUNCUBE-1 (AO-73)       
1 39444U 13066AE  23042.87970353  .00009951  00000+0  11409-2 0  9993
2 39444  97.6572  11.6275 0053719 327.6962  32.0967 14.85042315497622
UWE-3                   
1 39446U 13066AG  23043.14566807  .00008449  00000+0  10596-2 0  9998
2 39446  97.7195   2.4463 0068002  29.0735 331.4237 14.80779019496500
AEROCUBE 5A             
1 39465U 13072D   23042.78481235  .00286432  00000+0  74772-2 0  9992
2 39465 120.4733 142.7440 0120199 171.2556 189.0648 15.30350964185736
BRITE-CA1 (TORONTO)     
1 40020U 14033L   23042.85893447  .00003391  00000+0  57485-3 0  9993
2 40020  97.8042 195.1307 0085383 219.4563 140.0405 14.67494497462877
DUCHIFAT-1              
1 40021U 14033M   23042.87793859  .00015038  00000+0  13661-2 0  9990
2 40021  98.0435   3.1574 0010765 339.0274  21.0503 14.95315184470446
NANOSATC-BR1            
1 40024U 14033Q   23042.82418996  .00012124  00000+0  11474-2 0  9997
2 40024  98.0147 355.1140 0010635 349.4153  10.6840 14.93753986470201
QB50P1                  
1 40025U 14033R   23042.75329213  .00009810  00000+0  96755-3 0  9997
2 40025  97.9848 347.5265 0011532 358.6713   1.4473 14.92161385469429
QB50P2                  
1 40032U 14033Y   23042.87802434  .00009201  00000+0  92395-3 0  9999
2 40032  97.9573 342.0540 0010956 356.1546   3.9585 14.91466718469286
PERSEUS-M2              
1 40037U 14033AD  23043.20866638  .00004362  00000+0  48328-3 0  9998
2 40037  97.9048 329.2274 0014552  17.6607 342.5112 14.87758132469267
PERSEUS-M1              
1 40039U 14033AF  23043.19962957  .00004570  00000+0  51073-3 0  9991
2 40039  97.8922 326.5017 0014396  17.2101 342.9600 14.87376769469140
POLYITAN-1              
1 40042U 14033AJ  23042.80891271  .00013135  00000+0  12795-2 0  9996
2 40042  97.9964 349.1596 0013163 350.2901   9.8061 14.92564489469327
TIGRISAT                
1 40043U 14033AK  23042.44577446  .00004626  00000+0  66311-3 0  9991
2 40043  97.6565 223.9407 0059617 101.5302 259.2610 14.75763860464868
AEROCUBE 6A             
1 40045U 14033AM  23042.52216241  .00008309  00000+0  11431-2 0  9999
2 40045  97.6562 233.4307 0056947  87.4746 273.2982 14.77391605465066
AEROCUBE 6B             
1 40046U 14033AN  23042.75485839  .00008196  00000+0  11102-2 0  9995
2 40046  97.6494 232.0695 0055583  84.3219 276.4327 14.78103407465118
UKUBE-1                 
1 40074U 14037F   23042.94407238  .00005723  00000+0  64903-3 0  9999
2 40074  98.3556 300.9132 0002794 247.8515 112.2713 14.86775842465638
BRITE-PL2 (HEWELIUSZ)   
1 40119U 14049B   23042.75171907  .00005040  00000+0  58341-3 0  9993
2 40119  97.8794 141.0104 0017025 174.8988 185.2404 14.85848466459536
FIREBIRD 4              
1 40378U 15003C   23042.84934127  .00085822  00000+0  16961-2 0  9999
2 40378  99.0784 328.1685 0070808 287.5115  71.8399 15.44080298445142
GRIFEX                  
1 40379U 15003D   23043.16781652  .00049639  00000+0  14246-2 0  9999
2 40379  99.0823 310.9097 0098580 340.5213  19.2266 15.30909702444197
CP10 (EXOCUBE)          
1 40380U 15003E   23043.14079368  .00036609  00000+0  12119-2 0  9993
2 40380  99.0915 302.1822 0111466   9.6248 350.7084 15.25357169443626
EXACTVIEW 9             
1 40936U 15052G   23042.14724973  .00004928  00000+0  58060-3 0  9997
2 40936   6.0035 269.2688 0011062 297.6716  62.2289 14.77841421398577
AEROCUBE 5C             
1 40965U 15058B   23043.00673746  .00003876  00000+0  43982-3 0  9990
2 40965  64.7732  63.4809 0166407 119.0428 242.7465 14.78260230184325
AEROCUBE 7              
1 40966U 15058C   23043.08728122  .00004592  00000+0  51096-3 0  9999
2 40966  64.7723  59.9420 0164145 118.8180 242.9518 14.79002845184377
ATHENOXAT 1             
1 41168U 15077C   23042.81609567  .00079119  00000+0  23783-2 0  9994
2 41168  15.0018 105.2374 0004407  29.0193 118.1922 15.32574874396905
GALASSIA                
1 41170U 15077E   23043.31824175  .00046804  00000+0  16089-2 0  9993
2 41170  14.9868  97.1606 0008661  59.7629 300.3551 15.28164442397013
VELOX-II                
1 41171U 15077F   23042.06658255  .00031921  00000+0  13524-2 0  9994
2 41171  14.9900 194.4741 0006520 204.0967 155.9050 15.21087262395927
HORYU-4                 
1 41340U 16012D   23041.80325136  .00012999  00000+0  87379-3 0  9996
2 41340  31.0034 274.9292 0012281  52.6722 307.5032 15.05523264383645
E-ST@R-II               
1 41459U 16025D   23043.24893302  .00048687  00000+0  17277-2 0  9998
2 41459  98.1918 232.6006 0125807 171.7256 188.6746 15.21629444373845
AAUSAT 4                
1 41460U 16025E   23042.80058251  .00085476  00000+0  22400-2 0  9998
2 41460  98.1753 241.2536 0092634 139.3564 233.6496 15.34038615374416
BEESAT-4                
1 41619U 16040W   23042.86081879  .00062223  00000+0  14578-2 0  9991
2 41619  97.1822  92.9840 0006404 344.3256  15.7792 15.41861435357458
RAVAN                   
1 41849U 16067B   23043.13091106  .00015306  00000+0  11303-2 0  9993
2 41849  98.0188 192.6942 0015924 246.4436 113.5116 15.03244426341967
CELTEE 1                
1 41850U 16067C   23042.34771871  .00009834  00000+0  79567-3 0  9997
2 41850  98.0291 186.0437 0004248 286.3667  73.7088 14.99971862341540
OPTICUBE 04             
1 41851U 16067D   23043.13535302  .00006223  00000+0  52162-3 0  9994
2 41851  98.0240 185.5370 0006899 257.4082 102.6369 14.98761083341599
AEROCUBE 8D             
1 41852U 16067E   23042.34121486  .00011079  00000+0  89332-3 0  9995
2 41852  98.0247 185.0002 0004496 285.7828  74.2899 15.00067574341485
AEROCUBE 8C             
1 41853U 16067F   23042.39334855  .00010630  00000+0  85810-3 0  9996
2 41853  98.0193 184.8456 0006862 241.8432 118.2098 15.00026087341483
PROMETHEUS 2-1          
1 41854U 16067G   23042.63795066  .00016564  00000+0  12490-2 0  9994
2 41854  98.0476 187.1244 0017410 278.8877  81.0375 15.02414378341619
PROMETHEUS 2-3          
1 41855U 16067H   23042.82940624  .00016134  00000+0  12183-2 0  9990
2 41855  98.0374 187.3148 0015561 288.4567  71.4965 15.02392610341645
INS-1B                  
1 41954U 17008G   23042.38828242  .00068784  00000+0  16342-2 0  9997
2 41954  97.2231 103.1352 0006723  97.1034 263.0978 15.41408132333403
